{
    "links": {
        "self": "http://www.neowsapp.com/rest/v1/neo/3769885?api_key=iIulBulltgU6a56xZRHN4H3l9WmuAYTsLGpBGhQ2"
    },
    "id": "3769885",
    "neo_reference_id": "3769885",
    "name": "(2017 DZ35)",
    "designation": "2017 DZ35",
    "nasa_jpl_url": "http://ssd.jpl.nasa.gov/sbdb.cgi?sstr=3769885",
    "absolute_magnitude_h": 26.3,
    "estimated_diameter": {
        "kilometers": {
            "estimated_diameter_min": 0.0146067964,
            "estimated_diameter_max": 0.0326617897
        },
        "meters": {
            "estimated_diameter_min": 14.6067964271,
            "estimated_diameter_max": 32.6617897446
        },
        "miles": {
            "estimated_diameter_min": 0.0090762397,
            "estimated_diameter_max": 0.020295089
        },
        "feet": {
            "estimated_diameter_min": 47.92256199,
            "estimated_diameter_max": 107.1581062656
        }
    },
    "is_potentially_hazardous_asteroid": false,
    "close_approach_data": [
        {
            "close_approach_date": "2017-02-19",
            "close_approach_date_full": "2017-Feb-19 08:40",
            "epoch_date_close_approach": 1487493600000,
            "relative_velocity": {
                "kilometers_per_second": "8.4794940673",
                "kilometers_per_hour": "30526.1786424214",
                "miles_per_hour": "18967.7802792312"
            },
            "miss_distance": {
                "astronomical": "0.0164471307",
                "lunar": "6.3979338423",
                "kilometers": "2460455.720331609",
                "miles": "1528856.2906058442"
            },
            "orbiting_body": "Earth"
        },
        {
            "close_approach_date": "2033-08-15",
            "close_approach_date_full": "2033-Aug-15 02:10",
            "epoch_date_close_approach": 2007684600000,
            "relative_velocity": {
                "kilometers_per_second": "6.2807232952",
                "kilometers_per_hour": "22610.6038627115",
                "miles_per_hour": "14049.3499390276"
            },
            "miss_distance": {
                "astronomical": "0.7876383305",
                "lunar": "306.3913105645",
                "kilometers": "117829016.573156035",
                "miles": "73215555.848121883"
            },
            "orbiting_body": "Juptr"
        }
    ],
    "orbital_data": {
        "orbit_id": "3",
        "orbit_determination_date": "2017-04-06 08:20:00",
        "first_observation_date": "2017-02-22",
        "last_observation_date": "2017-02-27",
        "data_arc_in_days": 5,
        "observations_used": 18,
        "orbit_uncertainty": "7",
        "minimum_orbit_intersection": ".0153817",
        "jupiter_tisserand_invariant": "3.007",
        "epoch_osculation": "2459000.5",
        "eccentricity": ".6369547926795776",
        "semi_major_axis": "2.753886756467832",
        "inclination": "4.851156913311497",
        "ascending_node_longitude": "156.9821652722261",
        "orbital_period": "1669.235233897233",
        "perihelion_distance": ".9997853884388298",
        "perihelion_argument": "348.0946550566497",
        "aphelion_distance": "4.507988124496834",
        "perihelion_time": "2459468.010350865234",
        "mean_anomaly": "259.1731525349256",
        "mean_motion": ".2156676259220176",
        "equinox": "J2000",
        "orbit_class": {
            "orbit_class_type": "APO",
            "orbit_class_description": "Near-Earth asteroid orbits which cross the Earth’s orbit similar to that of 1862 Apollo",
            "orbit_class_range": "a (semi-major axis) > 1.0 AU; q (perihelion) < 1.017 AU"
        }
    },
    "is_sentry_object": false
}